start=new Date('2023-05-18T00:00:00.000Z').valueOf();
sats=[{"ELEMENT_SET_NO":"999","APOAPSIS":"540.520","NORAD_CAT_ID":"49432","REF_FRAME":"TEME","TLE_LINE1":"1 49432U 21104AA  23137.31557011  .00000269  00000-0  34979-4 0  9992","BSTAR":"0.00003497900000","EPHEMERIS_TYPE":"0","EPOCH":"2023-05-17T07:34:25.257504","MEAN_ELEMENT_THEORY":"SGP4","REV_AT_EPOCH":"8367","MEAN_ANOMALY":"273.5682","CENTER_NAME":"EARTH","ARG_OF_PERICENTER":"86.5439","COUNTRY_CODE":"US","ECCENTRICITY":"0.00011230","INCLINATION":"53.2158","OBJECT_ID":"2021-104AA","TLE_LINE2":"2 49432  53.2158 151.1814 0001123  86.5439 273.5682 15.08840841 83677","SEMIMAJOR_AXIS":"6917.878","OBJECT_TYPE":"PAYLOAD","PERIAPSIS":"538.966","TIME_SYSTEM":"UTC","OBJECT_NAME":"STARLINK-3158","GP_ID":"232042164","MEAN_MOTION_DDOT":"0.0000000000000","PERIOD":"95.438","SITE":"AFETR","CLASSIFICATION_TYPE":"U","LAUNCH_DATE":"2021-11-13","FILE":"3910633","RA_OF_ASC_NODE":"151.1814","RCS_SIZE":"LARGE","DECAY_DATE":null,"MEAN_MOTION_DOT":"0.00000269","MEAN_MOTION":"15.08840841"},{"PERIOD":"95.438","MEAN_MOTION_DDOT":"0.0000000000000","GP_ID":"232042414","CLASSIFICATION_TYPE":"U","SITE":"AFETR","LAUNCH_DATE":"2021-11-13","FILE":"3910633","DECAY_DATE":null,"RCS_SIZE":"LARGE","RA_OF_ASC_NODE":"139.3945","MEAN_MOTION_DOT":"0.00000375","MEAN_MOTION":"15.08837864","ELEMENT_SET_NO":"999","APOAPSIS":"540.532","EPHEMERIS_TYPE":"0","EPOCH":"2023-05-17T17:06:41.286240","BSTAR":"0.00004161400000","TLE_LINE1":"1 49433U 21104AB  23137.71297785  .00000375  00000-0  41614-4 0  9998","REF_FRAME":"TEME","NORAD_CAT_ID":"49433","MEAN_ELEMENT_THEORY":"SGP4","CENTER_NAME":"EARTH","REV_AT_EPOCH":"8496","MEAN_ANOMALY":"270.1604","INCLINATION":"53.2159","ECCENTRICITY":"0.00011280","ARG_OF_PERICENTER":"89.9518","COUNTRY_CODE":"US","TLE_LINE2":"2 49433  53.2159 139.3945 0001128  89.9518 270.1604 15.08837864 84963","SEMIMAJOR_AXIS":"6917.887","OBJECT_ID":"2021-104AB","OBJECT_NAME":"STARLINK-3079","PERIAPSIS":"538.972","TIME_SYSTEM":"UTC","OBJECT_TYPE":"PAYLOAD"},{"MEAN_ANOMALY":"271.9232","REV_AT_EPOCH":"8464","CENTER_NAME":"EARTH","ECCENTRICITY":"0.00012940","INCLINATION":"53.2160","ARG_OF_PERICENTER":"88.1908","COUNTRY_CODE":"US","OBJECT_ID":"2021-104AC","SEMIMAJOR_AXIS":"6917.887","TLE_LINE2":"2 49434  53.2160 160.4515 0001294  88.1908 271.9232 15.08837697 84647","PERIAPSIS":"538.857","TIME_SYSTEM":"UTC","OBJECT_NAME":"STARLINK-3134","OBJECT_TYPE":"PAYLOAD","ELEMENT_SET_NO":"999","APOAPSIS":"540.648","BSTAR":"0.00006076300000","TLE_LINE1":"1 49434U 21104AC  23137.48025361  .00000679  00000-0  60763-4 0  9995","EPOCH":"2023-05-17T11:31:33.911904","EPHEMERIS_TYPE":"0","NORAD_CAT_ID":"49434","REF_FRAME":"TEME","MEAN_ELEMENT_THEORY":"SGP4","FILE":"3910633","RA_OF_ASC_NODE":"160.4515","RCS_SIZE":"LARGE","DECAY_DATE":null,"MEAN_MOTION_DOT":"0.00000679","MEAN_MOTION":"15.08837697","PERIOD":"95.438","GP_ID":"232042666","MEAN_MOTION_DDOT":"0.0000000000000","CLASSIFICATION_TYPE":"U","SITE":"AFETR","LAUNCH_DATE":"2021-11-13"},{"FILE":"3910633","DECAY_DATE":null,"RCS_SIZE":"LARGE","RA_OF_ASC_NODE":"139.3791","MEAN_MOTION_DOT":"0.00000845","MEAN_MOTION":"15.08838609","PERIOD":"95.438","GP_ID":"232043416","MEAN_MOTION_DDOT":"0.0000000000000","CLASSIFICATION_TYPE":"U","SITE":"AFETR","LAUNCH_DATE":"2021-11-13","CENTER_NAME":"EARTH","REV_AT_EPOCH":"8387","MEAN_ANOMALY":"273.8464","INCLINATION":"53.2165","ECCENTRICITY":"0.00011920","ARG_OF_PERICENTER":"86.2664","COUNTRY_CODE":"US","SEMIMAJOR_AXIS":"6917.885","TLE_LINE2":"2 49435  53.2165 139.3791 0001192  86.2664 273.8464 15.08838609 83875","OBJECT_ID":"2021-104AD","OBJECT_NAME":"STARLINK-3117","PERIAPSIS":"538.925","TIME_SYSTEM":"UTC","OBJECT_TYPE":"PAYLOAD","ELEMENT_SET_NO":"999","APOAPSIS":"540.574","EPHEMERIS_TYPE":"0","EPOCH":"2023-05-17T17:13:21.802944","BSTAR":"0.00007120200000","TLE_LINE1":"1 49435U 21104AD  23137.71761346  .00000845  00000-0  71202-4 0  9997","NORAD_CAT_ID":"49435","REF_FRAME":"TEME","MEAN_ELEMENT_THEORY":"SGP4"},{"MEAN_ELEMENT_THEORY":"SGP4","TLE_LINE1":"1 49436U 21104AE  23137.71665579  .00000140  00000-0  26880-4 0  9999","BSTAR":"0.00002688000000","EPOCH":"2023-05-17T17:11:59.060256","EPHEMERIS_TYPE":"0","REF_FRAME":"TEME","NORAD_CAT_ID":"49436","APOAPSIS":"540.441","ELEMENT_SET_NO":"999","PERIAPSIS":"539.045","TIME_SYSTEM":"UTC","OBJECT_NAME":"STARLINK-3049","OBJECT_TYPE":"PAYLOAD","OBJECT_ID":"2021-104AE","TLE_LINE2":"2 49436  53.2154 139.3781 0001009  94.3872 265.7236 15.08840908 83873","SEMIMAJOR_AXIS":"6917.878","ECCENTRICITY":"0.00010090","INCLINATION":"53.2154","COUNTRY_CODE":"US","ARG_OF_PERICENTER":"94.3872","MEAN_ANOMALY":"265.7236","REV_AT_EPOCH":"8387","CENTER_NAME":"EARTH","LAUNCH_DATE":"2021-11-13","CLASSIFICATION_TYPE":"U","SITE":"AFETR","PERIOD":"95.437","MEAN_MOTION_DDOT":"0.0000000000000","GP_ID":"232041665","MEAN_MOTION":"15.08840908","MEAN_MOTION_DOT":"0.00000140","RA_OF_ASC_NODE":"139.3781","RCS_SIZE":"LARGE","DECAY_DATE":null,"FILE":"3910633"},{"RCS_SIZE":"LARGE","DECAY_DATE":null,"RA_OF_ASC_NODE":"139.4086","FILE":"3910633","MEAN_MOTION":"15.08847166","MEAN_MOTION_DOT":"0.00002288","CLASSIFICATION_TYPE":"U","SITE":"AFETR","PERIOD":"95.437","MEAN_MOTION_DDOT":"0.0000000000000","GP_ID":"232041915","LAUNCH_DATE":"2021-11-13","INCLINATION":"53.2145","ECCENTRICITY":"0.00010560","ARG_OF_PERICENTER":"75.9095","COUNTRY_CODE":"US","CENTER_NAME":"EARTH","MEAN_ANOMALY":"284.2014","REV_AT_EPOCH":"8387","OBJECT_NAME":"STARLINK-3130","TIME_SYSTEM":"UTC","PERIAPSIS":"538.993","OBJECT_TYPE":"PAYLOAD","TLE_LINE2":"2 49437  53.2145 139.4086 0001056  75.9095 284.2014 15.08847166 83870","SEMIMAJOR_AXIS":"6917.858","OBJECT_ID":"2021-104AF","APOAPSIS":"540.454","ELEMENT_SET_NO":"999","MEAN_ELEMENT_THEORY":"SGP4","EPOCH":"2023-05-17T17:01:23.167488","EPHEMERIS_TYPE":"0","TLE_LINE1":"1 49437U 21104AF  23137.70929592  .00002288  00000-0  16176-3 0  9998","BSTAR":"0.00016176000000","NORAD_CAT_ID":"49437","REF_FRAME":"TEME"},{"MEAN_ELEMENT_THEORY":"SGP4","NORAD_CAT_ID":"49438","REF_FRAME":"TEME","TLE_LINE1":"1 49438U 21104AG  23137.69920960  .00001579  00000-0  11729-3 0  9998","BSTAR":"0.00011729000000","EPHEMERIS_TYPE":"0","EPOCH":"2023-05-17T16:46:51.709440","APOAPSIS":"540.555","ELEMENT_SET_NO":"999","OBJECT_TYPE":"PAYLOAD","PERIAPSIS":"538.936","TIME_SYSTEM":"UTC","OBJECT_NAME":"STARLINK-3044","OBJECT_ID":"2021-104AG","TLE_LINE2":"2 49438  53.2163 139.3875 0001170  81.2311 278.8814 15.08839857 83879","SEMIMAJOR_AXIS":"6917.881","COUNTRY_CODE":"US","ARG_OF_PERICENTER":"81.2311","ECCENTRICITY":"0.00011700","INCLINATION":"53.2163","REV_AT_EPOCH":"8387","MEAN_ANOMALY":"278.8814","CENTER_NAME":"EARTH","LAUNCH_DATE":"2021-11-13","CLASSIFICATION_TYPE":"U","SITE":"AFETR","MEAN_MOTION_DDOT":"0.0000000000000","GP_ID":"232043166","PERIOD":"95.438","MEAN_MOTION":"15.08839857","MEAN_MOTION_DOT":"0.00001579","RA_OF_ASC_NODE":"139.3875","DECAY_DATE":null,"RCS_SIZE":"LARGE","FILE":"3910633"},{"LAUNCH_DATE":"2021-11-13","CLASSIFICATION_TYPE":"U","SITE":"AFETR","PERIOD":"95.438","GP_ID":"232042917","MEAN_MOTION_DDOT":"0.0000000000000","MEAN_MOTION":"15.08840387","MEAN_MOTION_DOT":"0.00000763","RCS_SIZE":"LARGE","DECAY_DATE":null,"RA_OF_ASC_NODE":"141.3013","FILE":"3910633","MEAN_ELEMENT_THEORY":"SGP4","EPHEMERIS_TYPE":"0","EPOCH":"2023-05-17T06:58:39.186912","TLE_LINE1":"1 49439U 21104AH  23137.29073133  .00000763  00000-0  65999-4 0  9999","BSTAR":"0.00006599900000","REF_FRAME":"TEME","NORAD_CAT_ID":"49439","APOAPSIS":"540.579","ELEMENT_SET_NO":"999","OBJECT_NAME":"STARLINK-3108","TIME_SYSTEM":"UTC","PERIAPSIS":"538.910","OBJECT_TYPE":"PAYLOAD","TLE_LINE2":"2 49439  53.2157 141.3013 0001206  89.0296 271.0834 15.08840387 83819","SEMIMAJOR_AXIS":"6917.879","OBJECT_ID":"2021-104AH","INCLINATION":"53.2157","ECCENTRICITY":"0.00012060","ARG_OF_PERICENTER":"89.0296","COUNTRY_CODE":"US","CENTER_NAME":"EARTH","MEAN_ANOMALY":"271.0834","REV_AT_EPOCH":"8381"},{"RCS_SIZE":"LARGE","DECAY_DATE":null,"RA_OF_ASC_NODE":"139.4419","FILE":"3910633","MEAN_MOTION":"15.08837944","MEAN_MOTION_DOT":"0.00000239","CLASSIFICATION_TYPE":"U","SITE":"AFETR","GP_ID":"232042165","MEAN_MOTION_DDOT":"0.0000000000000","PERIOD":"95.438","LAUNCH_DATE":"2021-11-13","ARG_OF_PERICENTER":"85.8406","COUNTRY_CODE":"US","INCLINATION":"53.2157","ECCENTRICITY":"0.00009590","CENTER_NAME":"EARTH","REV_AT_EPOCH":"8387","MEAN_ANOMALY":"274.2696","OBJECT_TYPE":"PAYLOAD","OBJECT_NAME":"STARLINK-3105","TIME_SYSTEM":"UTC","PERIAPSIS":"539.088","SEMIMAJOR_AXIS":"6917.887","TLE_LINE2":"2 49440  53.2157 139.4419 0000959  85.8406 274.2696 15.08837944 83872","OBJECT_ID":"2021-104AJ","APOAPSIS":"540.415","ELEMENT_SET_NO":"999","MEAN_ELEMENT_THEORY":"SGP4","REF_FRAME":"TEME","NORAD_CAT_ID":"49440","EPHEMERIS_TYPE":"0","EPOCH":"2023-05-17T16:50:47.134752","TLE_LINE1":"1 49440U 21104AJ  23137.70193443  .00000239  00000-0  33107-4 0  9998","BSTAR":"0.00003310700000"},{"LAUNCH_DATE":"2021-11-13","SITE":"AFETR","CLASSIFICATION_TYPE":"U","PERIOD":"95.437","GP_ID":"232042415","MEAN_MOTION_DDOT":"0.0000000000000","MEAN_MOTION":"15.08841531","MEAN_MOTION_DOT":"0.00000582","RA_OF_ASC_NODE":"141.3139","DECAY_DATE":null,"RCS_SIZE":"LARGE","FILE":"3910633","MEAN_ELEMENT_THEORY":"SGP4","TLE_LINE1":"1 49441U 21104AK  23137.28609295  .00000582  00000-0  54623-4 0  9996","BSTAR":"0.00005462300000","EPHEMERIS_TYPE":"0","EPOCH":"2023-05-17T06:51:58.430880","NORAD_CAT_ID":"49441","REF_FRAME":"TEME","APOAPSIS":"540.531","ELEMENT_SET_NO":"999","TIME_SYSTEM":"UTC","PERIAPSIS":"538.951","OBJECT_NAME":"STARLINK-3128","OBJECT_TYPE":"PAYLOAD","OBJECT_ID":"2021-104AK","TLE_LINE2":"2 49441  53.2158 141.3139 0001142  83.1617 276.9505 15.08841531 83814","SEMIMAJOR_AXIS":"6917.876","ECCENTRICITY":"0.00011420","INCLINATION":"53.2158","COUNTRY_CODE":"US","ARG_OF_PERICENTER":"83.1617","MEAN_ANOMALY":"276.9505","REV_AT_EPOCH":"8381","CENTER_NAME":"EARTH"}];
